{
    "links": {
        "self": "http://www.neowsapp.com/rest/v1/neo/3694528?api_key=iIulBulltgU6a56xZRHN4H3l9WmuAYTsLGpBGhQ2"
    },
    "id": "3694528",
    "neo_reference_id": "3694528",
    "name": "(2014 UM114)",
    "designation": "2014 UM114",
    "nasa_jpl_url": "http://ssd.jpl.nasa.gov/sbdb.cgi?sstr=3694528",
    "absolute_magnitude_h": 25.5,
    "estimated_diameter": {
        "kilometers": {
            "estimated_diameter_min": 0.0211132445,
            "estimated_diameter_max": 0.0472106499
        },
        "meters": {
            "estimated_diameter_min": 21.113244479,
            "estimated_diameter_max": 47.2106498806
        },
        "miles": {
            "estimated_diameter_min": 0.0131191578,
            "estimated_diameter_max": 0.0293353287
        },
        "feet": {
            "estimated_diameter_min": 69.2691770164,
            "estimated_diameter_max": 154.8905885541
        }
    },
    "is_potentially_hazardous_asteroid": false,
    "close_approach_data": [
        {
            "close_approach_date": "2014-10-08",
            "close_approach_date_full": "2014-Oct-08 20:15",
            "epoch_date_close_approach": 1412799300000,
            "relative_velocity": {
                "kilometers_per_second": "7.6908692252",
                "kilometers_per_hour": "27687.1292106979",
                "miles_per_hour": "17203.7053698361"
            },
            "miss_distance": {
                "astronomical": "0.0424660132",
                "lunar": "16.5192791348",
                "kilometers": "6352825.122111884",
                "miles": "3947462.4846126392"
            },
            "orbiting_body": "Earth"
        }
    ],
    "orbital_data": {
        "orbit_id": "4",
        "orbit_determination_date": "2019-07-18 07:27:15",
        "first_observation_date": "2014-10-25",
        "last_observation_date": "2014-10-28",
        "data_arc_in_days": 3,
        "observations_used": 18,
        "orbit_uncertainty": "9",
        "minimum_orbit_intersection": ".0359016",
        "jupiter_tisserand_invariant": "3.931",
        "epoch_osculation": "2456956.5",
        "eccentricity": ".4408957868460545",
        "semi_major_axis": "1.808332759782165",
        "inclination": "5.587860045872927",
        "ascending_node_longitude": "206.2120046324185",
        "orbital_period": "888.2106003425029",
        "perihelion_distance": "1.01104646477851",
        "perihelion_argument": "147.3784084374629",
        "aphelion_distance": "2.60561905478582",
        "perihelion_time": "2456921.433106353513",
        "mean_anomaly": "14.21293745860199",
        "mean_motion": ".4053092812235977",
        "equinox": "J2000",
        "orbit_class": {
            "orbit_class_type": "APO",
            "orbit_class_description": "Near-Earth asteroid orbits which cross the Earth’s orbit similar to that of 1862 Apollo",
            "orbit_class_range": "a (semi-major axis) > 1.0 AU; q (perihelion) < 1.017 AU"
        }
    },
    "is_sentry_object": false
}